{
  "type": "FeatureCollection",
  "features": [
    {
      "type": "Feature",
      "properties": {
        "norad_id": 32143,
        "name": "FENGYUN 1C DEB",
        "group": "fengyun-1c-debris",
        "lat": 80.07235043736227,
        "lon": -105.35384998214958,
        "alt_km": 777.0231817986514,
        "timestamp": "2025-12-03T04:52:29.922944+00:00",
        "meta_object_name": "FENGYUN 1C DEB",
        "meta_object_id": "1999-025CSM",
        "meta_epoch": "2025-11-30T05:20:46.194432",
        "meta_mean_motion": 14.1795648,
        "meta_eccentricity": 0.01040275,
        "meta_inclination": 98.5959,
        "meta_ra_of_asc_node": 311.5532,
        "meta_arg_of_pericenter": 144.4666,
        "meta_mean_anomaly": 216.3496,
        "meta_ephemeris_type": 0,
        "meta_classification_type": "U",
        "meta_norad_cat_id": 32143,
        "meta_element_set_no": 999,
        "meta_rev_at_epoch": 95756,
        "meta_bstar": 0.00016328137,
        "meta_mean_motion_dot": 3.11e-06,
        "meta_mean_motion_ddot": 0,
        "tle_line1": "1 32143U 99025CSM 25334.22275688  .00000311  00000+0  16328-3 0  9992",
        "tle_line2": "2 32143  98.5959 311.5532 0104027 144.4666 216.3496 14.17956480957563"
      },
      "geometry": {
        "type": "Point",
        "coordinates": [
          -105.35384998214958,
          80.07235043736227
        ]
      }
    },
    {
      "type": "Feature",
      "properties": {
        "norad_id": 32150,
        "name": "FENGYUN 1C DEB",
        "group": "fengyun-1c-debris",
        "lat": -72.44860549764331,
        "lon": 148.20675844569703,
        "alt_km": 811.5181491167186,
        "timestamp": "2025-12-03T04:52:29.922955+00:00",
        "meta_object_name": "FENGYUN 1C DEB",
        "meta_object_id": "1999-025CSU",
        "meta_epoch": "2025-11-29T19:09:50.026752",
        "meta_mean_motion": 14.60634219,
        "meta_eccentricity": 0.01723606,
        "meta_inclination": 99.1937,
        "meta_ra_of_asc_node": 355.2308,
        "meta_arg_of_pericenter": 106.7202,
        "meta_mean_anomaly": 255.299,
        "meta_ephemeris_type": 0,
        "meta_classification_type": "U",
        "meta_norad_cat_id": 32150,
        "meta_element_set_no": 999,
        "meta_rev_at_epoch": 97517,
        "meta_bstar": 0.00012171499,
        "meta_mean_motion_dot": 6.63e-06,
        "meta_mean_motion_ddot": 0,
        "tle_line1": "1 32150U 99025CSU 25333.79849568  .00000663  00000+0  12171-3 0  9997",
        "tle_line2": "2 32150  99.1937 355.2308 0172360 106.7202 255.2990 14.60634219975171"
      },
      "geometry": {
        "type": "Point",
        "coordinates": [
          148.20675844569703,
          -72.44860549764331
        ]
      }
    },
    {
      "type": "Feature",
      "properties": {
        "norad_id": 32152,
        "name": "FENGYUN 1C DEB",
        "group": "fengyun-1c-debris",
        "lat": -42.74358695294145,
        "lon": -50.33404758755961,
        "alt_km": 672.4068563767269,
        "timestamp": "2025-12-03T04:52:29.922965+00:00",
        "meta_object_name": "FENGYUN 1C DEB",
        "meta_object_id": "1999-025CSW",
        "meta_epoch": "2025-12-01T17:13:28.565472",
        "meta_mean_motion": 14.56407468,
        "meta_eccentricity": 0.00553785,
        "meta_inclination": 98.7602,
        "meta_ra_of_asc_node": 136.2993,
        "meta_arg_of_pericenter": 234.9992,
        "meta_mean_anomaly": 124.6,
        "meta_ephemeris_type": 0,
        "meta_classification_type": "U",
        "meta_norad_cat_id": 32152,
        "meta_element_set_no": 999,
        "meta_rev_at_epoch": 62452,
        "meta_bstar": 0.0019545049,
        "meta_mean_motion_dot": 8.814e-05,
        "meta_mean_motion_ddot": 0,
        "tle_line1": "1 32152U 99025CSW 25335.71769173  .00008814  00000+0  19545-2 0  9993",
        "tle_line2": "2 32152  98.7602 136.2993 0055378 234.9992 124.6000 14.56407468624523"
      },
      "geometry": {
        "type": "Point",
        "coordinates": [
          -50.33404758755961,
          -42.74358695294145
        ]
      }
    },
    {
      "type": "Feature",
      "properties": {
        "norad_id": 32153,
        "name": "FENGYUN 1C DEB",
        "group": "fengyun-1c-debris",
        "lat": 74.63708365049361,
        "lon": 33.94231632173916,
        "alt_km": 846.1828588988792,
        "timestamp": "2025-12-03T04:52:29.922975+00:00",
        "meta_object_name": "FENGYUN 1C DEB",
        "meta_object_id": "1999-025CSX",
        "meta_epoch": "2025-12-01T12:36:09.592128",
        "meta_mean_motion": 14.48662778,
        "meta_eccentricity": 0.02070632,
        "meta_inclination": 98.7701,
        "meta_ra_of_asc_node": 178.0134,
        "meta_arg_of_pericenter": 255.2407,
        "meta_mean_anomaly": 102.576,
        "meta_ephemeris_type": 0,
        "meta_classification_type": "U",
        "meta_norad_cat_id": 32153,
        "meta_element_set_no": 999,
        "meta_rev_at_epoch": 97061,
        "meta_bstar": 0.00036967855,
        "meta_mean_motion_dot": 1.766e-05,
        "meta_mean_motion_ddot": 0,
        "tle_line1": "1 32153U 99025CSX 25335.52511102  .00001766  00000+0  36968-3 0  9998",
        "tle_line2": "2 32153  98.7701 178.0134 0207063 255.2407 102.5760 14.48662778970612"
      },
      "geometry": {
        "type": "Point",
        "coordinates": [
          33.94231632173916,
          74.63708365049361
        ]
      }
    },
    {
      "type": "Feature",
      "properties": {
        "norad_id": 32155,
        "name": "FENGYUN 1C DEB",
        "group": "fengyun-1c-debris",
        "lat": -80.0124573728445,
        "lon": 23.010601177074268,
        "alt_km": 739.9210873739839,
        "timestamp": "2025-12-03T04:52:29.922985+00:00",
        "meta_object_name": "FENGYUN 1C DEB",
        "meta_object_id": "1999-025CSZ",
        "meta_epoch": "2025-11-30T01:53:48.632640",
        "meta_mean_motion": 14.32890455,
        "meta_eccentricity": 0.00691431,
        "meta_inclination": 98.9496,
        "meta_ra_of_asc_node": 263.2731,
        "meta_arg_of_pericenter": 277.7319,
        "meta_mean_anomaly": 81.6016,
        "meta_ephemeris_type": 0,
        "meta_classification_type": "U",
        "meta_norad_cat_id": 32155,
        "meta_element_set_no": 999,
        "meta_rev_at_epoch": 70041,
        "meta_bstar": 0.00066630415,
        "meta_mean_motion_dot": 1.821e-05,
        "meta_mean_motion_ddot": 0,
        "tle_line1": "1 32155U 99025CSZ 25334.07903510  .00001821  00000+0  66630-3 0  9998",
        "tle_line2": "2 32155  98.9496 263.2731 0069143 277.7319  81.6016 14.32890455700411"
      },
      "geometry": {
        "type": "Point",
        "coordinates": [
          23.010601177074268,
          -80.0124573728445
        ]
      }
    },
    {
      "type": "Feature",
      "properties": {
        "norad_id": 32156,
        "name": "FENGYUN 1C DEB",
        "group": "fengyun-1c-debris",
        "lat": -52.91187689238121,
        "lon": 158.62725018106863,
        "alt_km": 836.201153556658,
        "timestamp": "2025-12-03T04:52:29.922996+00:00",
        "meta_object_name": "FENGYUN 1C DEB",
        "meta_object_id": "1999-025CTA",
        "meta_epoch": "2025-11-28T04:22:59.204352",
        "meta_mean_motion": 14.31912456,
        "meta_eccentricity": 0.00824268,
        "meta_inclination": 99.3546,
        "meta_ra_of_asc_node": 140.6244,
        "meta_arg_of_pericenter": 99.0063,
        "meta_mean_anomaly": 262.0458,
        "meta_ephemeris_type": 0,
        "meta_classification_type": "U",
        "meta_norad_cat_id": 32156,
        "meta_element_set_no": 999,
        "meta_rev_at_epoch": 64612,
        "meta_bstar": 0.00036827986,
        "meta_mean_motion_dot": 9.74e-06,
        "meta_mean_motion_ddot": 0,
        "tle_line1": "1 32156U 99025CTA 25332.18262968  .00000974  00000+0  36828-3 0  9998",
        "tle_line2": "2 32156  99.3546 140.6244 0082426  99.0063 262.0458 14.31912456646127"
      },
      "geometry": {
        "type": "Point",
        "coordinates": [
          158.62725018106863,
          -52.91187689238121
        ]
      }
    },
    {
      "type": "Feature",
      "properties": {
        "norad_id": 32160,
        "name": "FENGYUN 1C DEB",
        "group": "fengyun-1c-debris",
        "lat": -76.62658000904649,
        "lon": 175.18027385258927,
        "alt_km": 790.7475476885256,
        "timestamp": "2025-12-03T04:52:29.923006+00:00",
        "meta_object_name": "FENGYUN 1C DEB",
        "meta_object_id": "1999-025CTE",
        "meta_epoch": "2025-12-02T05:51:27.330048",
        "meta_mean_motion": 14.37522082,
        "meta_eccentricity": 0.0082504,
        "meta_inclination": 98.8812,
        "meta_ra_of_asc_node": 133.0663,
        "meta_arg_of_pericenter": 29.8509,
        "meta_mean_anomaly": 330.7345,
        "meta_ephemeris_type": 0,
        "meta_classification_type": "U",
        "meta_norad_cat_id": 32160,
        "meta_element_set_no": 999,
        "meta_rev_at_epoch": 95736,
        "meta_bstar": 0.00054839,
        "meta_mean_motion_dot": 1.661e-05,
        "meta_mean_motion_ddot": 0,
        "tle_line1": "1 32160U 99025CTE 25336.24406632  .00001661  00000+0  54839-3 0  9998",
        "tle_line2": "2 32160  98.8812 133.0663 0082504  29.8509 330.7345 14.37522082957363"
      },
      "geometry": {
        "type": "Point",
        "coordinates": [
          175.18027385258927,
          -76.62658000904649
        ]
      }
    }
  ]
}